[ {"name": "STARLINK-4316", "line1": "1 53471U 22099G   26121.59246000  .00008848  00000+0  61690-3 0  9992", "line2": "2 53471  97.5480 243.2838 0002061 141.1875 218.9500 15.05632786204005"}, {"name": "STARLINK-4447", "line1": "1 53472U 22099H   26121.81261919  .00000568  00000+0  43491-4 0  9995", "line2": "2 53472  97.5486 242.3858 0000864 150.7516 209.3759 15.05656291203962"}, {"name": "STARLINK-4383", "line1": "1 53473U 22099J   26121.83336806  .00045403  00000+0  26936-2 0  9996", "line2": "2 53473  97.6010 243.6502 0001417 101.0209  14.4157 15.11185669  5678"}, {"name": "STARLINK-4445", "line1": "1 53474U 22099K   26121.84033117 -.00000290  00000+0 -15934-4 0  9992", "line2": "2 53474  97.5521 242.4739 0000551 262.7614  97.3550 15.05646063203970"}, {"name": "STARLINK-4389", "line1": "1 53475U 22099L   26121.83336806  .00099164  00000+0  36188-2 0  9991", "line2": "2 53475  97.6049 243.1806 0001057  96.5939 310.0432 15.27725412  5733"}, {"name": "STARLINK-4378", "line1": "1 53476U 22099M   26121.82648506  .00012810  00000+0  89182-3 0  9990", "line2": "2 53476  97.5476 242.5128 0000083  36.4597 323.6636 15.05590330203975"}, {"name": "STARLINK-4412", "line1": "1 53477U 22099N   26121.83336806  .00102156  00000+0  37526-2 0  9996", "line2": "2 53477  97.6040 243.1486 0001314  89.4079 261.0201 15.27494325  5681"}, {"name": "STARLINK-4433", "line1": "1 53478U 22099P   26121.81816262  .00000270  00000+0  22887-4 0  9994", "line2": "2 53478  97.5538 242.3665 0001382  97.5344 262.6040 15.05649353203961"}, {"name": "STARLINK-4436", "line1": "1 53479U 22099Q   26121.80290690  .00002322  00000+0  16497-3 0  9994", "line2": "2 53479  97.5467 243.5921 0002138 159.5248 200.6065 15.05659284204046"}, {"name": "STARLINK-4442", "line1": "1 53480U 22099R   26121.83336806  .00085904  00000+0  34872-2 0  9992", "line2": "2 53480  97.6036 244.1649 0001766  88.6361 132.0768 15.24236151  5737"}, {"name": "STARLINK-4302", "line1": "1 53481U 22099S   26121.80746825  .00009888  00000+0  42112-3 0  9990", "line2": "2 53481  97.6052 243.1795 0001113  75.7075 284.4285 15.23184162204013"}, {"name": "STARLINK-4360", "line1": "1 53482U 22099T   26121.82924112 -.00001339  00000+0 -88653-4 0  9996", "line2": "2 53482  97.5467 242.4847 0000367 210.1370 149.9836 15.05658342203973"}, {"name": "STARLINK-4426", "line1": "1 53484U 22099V   26121.84166601 -.00000015  00000+0  31298-5 0  9994", "line2": "2 53484  97.5543 243.5336 0001764 152.1040 208.0281 15.05649296204044"}, {"name": "STARLINK-4430", "line1": "1 53485U 22099W   26121.83202178  .00002521  00000+0  17889-3 0  9995", "line2": "2 53485  97.5478 242.4719 0000872  60.0056 300.1257 15.05628894203977"}, {"name": "STARLINK-4431", "line1": "1 53486U 22099X   26121.80623398  .00008176  00000+0  31891-3 0  9995", "line2": "2 53486  97.6054 243.3251 0001189  69.2865 290.8500 15.26202385204020"}, {"name": "STARLINK-4432", "line1": "1 53487U 22099Y   26121.82227954  .00001462  00000+0  10539-3 0  9993", "line2": "2 53487  97.5525 243.5411 0000117 250.0134 110.1080 15.05676085204040"}, {"name": "STARLINK-4421", "line1": "1 53488U 22099Z   26121.80013949  .00001292  00000+0  93673-4 0  9991", "line2": "2 53488  97.5474 243.5816 0002196 130.8724 229.2694 15.05644117204046"}, {"name": "STARLINK-4392", "line1": "1 53489U 22099AA  26121.85416188 -.00000208  00000+0 -10260-4 0  9998", "line2": "2 53489  97.5469 242.4219 0001129  97.6370 262.4985 15.05643887203974"}, {"name": "STARLINK-4387", "line1": "1 53490U 22099AB  26121.83336806  .00090962  00000+0  38125-2 0  9998", "line2": "2 53490  97.6042 244.1586 0001646  95.9868 192.0078 15.23130152  5839"}, {"name": "STARLINK-4450", "line1": "1 53491U 22099AC  26121.83336806  .00497445  00000+0  15460-1 0  9992", "line2": "2 53491  97.6066 243.3143 0001508  83.5035  38.6364 15.31200326  5835"}, {"name": "STARLINK-4451", "line1": "1 53492U 22099AD  26121.82787449  .00000000  00000+0  37065-5 0  9991", "line2": "2 53492  97.6013 242.6511 0001313  92.9273 267.2108 15.13116644203982"}, {"name": "STARLINK-4340", "line1": "1 53494U 22099AF  26121.59798708 -.00002271  00000+0 -15325-3 0  9994", "line2": "2 53494  97.5482 243.3662 0001809 169.6891 190.4373 15.05657381204011"}, {"name": "STARLINK-4429", "line1": "1 53495U 22099AG  26121.83754096 -.00004147  00000+0 -28326-3 0  9993", "line2": "2 53495  97.5482 242.4276 0000093  59.2041 300.9195 15.05668672203977"}, {"name": "STARLINK-4453", "line1": "1 53497U 22099AJ  26121.84587329  .00015691  00000+0  10919-2 0  9991", "line2": "2 53497  97.5508 242.4100 0001157  60.0560 300.0781 15.05556895203977"}, {"name": "STARLINK-4439", "line1": "1 53498U 22099AK  26121.83334977  .00000273  00000+0  23067-4 0  9990", "line2": "2 53498  97.5508 243.5012 0000464 250.9733 109.1444 15.05654953204041"}, {"name": "STARLINK-4454", "line1": "1 53499U 22099AL  26121.83336806  .00421572  00000+0  17337-1 0  9993", "line2": "2 53499  97.6036 243.9714 0001351  82.5149 219.0907 15.22213379  5820"}, {"name": "STARLINK-4455", "line1": "1 53500U 22099AM  26121.80469073  .00020672  00000+0  87598-3 0  9990", "line2": "2 53500  97.6054 244.1975 0002518  84.6885 275.4639 15.23172039204086"}, {"name": "STARLINK-4434", "line1": "1 53501U 22099AN  26121.80599396 -.00025288  00000+0 -10377-2 0  9993", "line2": "2 53501  97.6048 243.2663 0001663  98.6302 261.5123 15.24251890204025"}, {"name": "STARLINK-4435", "line1": "1 53502U 22099AP  26121.83336806  .00097131  00000+0  35612-2 0  9995", "line2": "2 53502  97.6035 244.3407 0001353  68.8224  29.1292 15.27581322  5818"}, {"name": "STARLINK-4448", "line1": "1 53504U 22099AR  26121.83336806  .00081991  00000+0  30970-2 0  9996", "line2": "2 53504  97.6031 243.1591 0001692  79.2688 125.9705 15.26665758  5788"}, {"name": "STARLINK-4446", "line1": "1 53505U 22099AS  26121.83336806 -.00064677  00000+0 -50769-3 0  9990", "line2": "2 53505  97.6040 248.4379 0001304  77.0606 106.9794 15.71614020  5971"}, {"name": "STARLINK-4437", "line1": "1 53506U 22099AT  26121.83336806  .00107582  00000+0  36766-2 0  9992", "line2": "2 53506  97.6043 244.3063 0001174  70.7072 343.0618 15.29839422  5823"}, {"name": "STARLINK-4443", "line1": "1 53508U 22099AV  26121.85274760  .00000821  00000+0  61081-4 0  9994", "line2": "2 53508  97.5481 243.5923 0001136 142.1423 217.9884 15.05642495204054"}, {"name": "STARLINK-4402", "line1": "1 53509U 22099AW  26121.83336806  .00085006  00000+0  31547-2 0  9993", "line2": "2 53509  97.6041 243.2053 0001353  91.6649 280.3288 15.27237033  5837"}, {"name": "STARLINK-4503", "line1": "1 53528U 22101B   26121.50663861  .00000283  00000+0  35881-4 0  9997", "line2": "2 53528  53.2164 197.0178 0001116  84.9687 275.1432 15.08841504204130"}, {"name": "STARLINK-4478", "line1": "1 53529U 22101C   26121.57106896  .00016729  00000+0  95482-3 0  9999", "line2": "2 53529  53.2155 195.4062 0001149 279.4722  80.6142 15.12869504204167"}, {"name": "STARLINK-4482", "line1": "1 53530U 22101D   26121.58027367 -.00000352  00000+0 -40668-5 0  9992", "line2": "2 53530  53.2167 196.9051 0001097  86.6063 273.5054 15.08834256204148"}, {"name": "STARLINK-4487", "line1": "1 53531U 22101E   26121.62808601  .00003144  00000+0  21550-3 0  9993", "line2": "2 53531  53.2166 196.4722 0001186  79.9990 280.1136 15.08849319204153"}, {"name": "STARLINK-4483", "line1": "1 53532U 22101F   26121.52871929  .00000741  00000+0  64602-4 0  9992", "line2": "2 53532  53.2165 196.9135 0000873  79.5314 280.5776 15.08842452204148"}, {"name": "STARLINK-4493", "line1": "1 53533U 22101G   26121.59128119  .00001220  00000+0  94729-4 0  9992", "line2": "2 53533  53.2173 196.6225 0001142  78.7332 281.3788 15.08843900204158"}, {"name": "STARLINK-4138", "line1": "1 53535U 22101J   26121.58761463 -.00001388  00000+0 -69162-4 0  9998", "line2": "2 53535  53.2175 196.6506 0001349  71.0810 289.0329 15.08827675204157"}, {"name": "STARLINK-4053", "line1": "1 53536U 22101K   26121.56275375  .00000529  00000+0  51320-4 0  9990", "line2": "2 53536  53.2174 186.6860 0001108  68.7346 291.3764 15.08841160204287"}, {"name": "STARLINK-4120", "line1": "1 53537U 22101L   26121.58855567 -.00000058  00000+0  14450-4 0  9991", "line2": "2 53537  53.2181 196.6175 0001329  83.3289 276.7855 15.08840375204151"}, {"name": "STARLINK-4123", "line1": "1 53539U 22101N   26121.58392216  .00000551  00000+0  52703-4 0  9990", "line2": "2 53539  53.2162 196.6698 0000929  92.0609 268.0490 15.08844161204156"}, {"name": "STARLINK-4486", "line1": "1 53540U 22101P   26121.46439913  .00000880  00000+0  73391-4 0  9996", "line2": "2 53540  53.2165 187.5607 0001077  79.2259 280.8855 15.08840408204958"}, {"name": "STARLINK-4485", "line1": "1 53541U 22101Q   26121.51032340 -.00000716  00000+0 -26895-4 0  9993", "line2": "2 53541  53.2172 197.0022 0001230  94.1579 265.9554 15.08843486204832"}, {"name": "STARLINK-4489", "line1": "1 53542U 22101R   26121.55540267  .00000505  00000+0  49822-4 0  9999", "line2": "2 53542  53.2164 186.7982 0001196  88.4183 271.6946 15.08838987204976"}, {"name": "STARLINK-4297", "line1": "1 53543U 22101S   26121.57012637  .00001002  00000+0  81024-4 0  9990", "line2": "2 53543  53.2167 186.7961 0001209  87.4924 272.6206 15.08844987204971"}, {"name": "STARLINK-4303", "line1": "1 53544U 22101T   26121.54803927  .00000843  00000+0  71031-4 0  9997", "line2": "2 53544  53.2170 186.8321 0001241  84.1729 275.9405 15.08843328204953"}, {"name": "STARLINK-4475", "line1": "1 53545U 22101U   26121.55907927  .00000966  00000+0  78737-4 0  9990", "line2": "2 53545  53.2168 186.7795 0000959  77.1448 282.9651 15.08842747204977"}, {"name": "STARLINK-4477", "line1": "1 53546U 22101V   26121.43114177 -.00000922  00000+0 -39864-4 0  9997", "line2": "2 53546  53.2191 176.8853 0000588  80.7783 279.3276 15.08832141204418"}, {"name": "STARLINK-4474", "line1": "1 53547U 22101W   26121.55172227  .00001040  00000+0  83404-4 0  9990", "line2": "2 53547  53.2167 186.8144 0001113  94.1781 265.9338 15.08840190204950"}]